[{"OBJECT_NAME":"ONEWEB-0086","OBJECT_ID":"2020-020AJ","EPOCH":"2026-03-09T21:21:09.313632","MEAN_MOTION":13.11417696,"ECCENTRICITY":0.00020154,"INCLINATION":87.8869,"RA_OF_ASC_NODE":40.797,"ARG_OF_PERICENTER":104.2526,"MEAN_ANOMALY":255.8826,"EPHEMERIS_TYPE":0,"CLASSIFICATION_TYPE":"U","NORAD_CAT_ID":45456,"ELEMENT_SET_NO":999,"REV_AT_EPOCH":28959,"BSTAR":0.00021690431,"MEAN_MOTION_DOT":9.0e-7,"MEAN_MOTION_DDOT":0},{"OBJECT_NAME":"ARIANE 42P DEB","OBJECT_ID":"1992-052K","EPOCH":"2026-03-09T08:09:33.385536","MEAN_MOTION":12.86857816,"ECCENTRICITY":0.02652882,"INCLINATION":65.9122,"RA_OF_ASC_NODE":76.3255,"ARG_OF_PERICENTER":3.6147,"MEAN_ANOMALY":356.6707,"EPHEMERIS_TYPE":0,"CLASSIFICATION_TYPE":"U","NORAD_CAT_ID":44512,"ELEMENT_SET_NO":999,"REV_AT_EPOCH":30753,"BSTAR":0.0079393141,"MEAN_MOTION_DOT":2.253e-5,"MEAN_MOTION_DDOT":0}]
